CCSDS_OMM_VERS = 2.0
CREATION_DATE  = 
ORIGINATOR     = 

OBJECT_NAME    = STARLINK-36673
OBJECT_ID      = 2026-022N
CENTER_NAME    = EARTH
REF_FRAME      = TEME
TIME_SYSTEM    = UTC
MEAN_ELEMENT_THEORY = SGP/SGP4

EPOCH          = 2026-02-21T18:23:59.411904
MEAN_MOTION    = 15.75241158
ECCENTRICITY   = .0001167
INCLINATION    = 97.2845
RA_OF_ASC_NODE = 85.9773
ARG_OF_PERICENTER = 99.9254
MEAN_ANOMALY   = 260.2143

EPHEMERIS_TYPE = 0
CLASSIFICATION_TYPE = U
NORAD_CAT_ID   = 67660
ELEMENT_SET_NO = 999
REV_AT_EPOCH   = 304
BSTAR          = .10817E-2
MEAN_MOTION_DOT = .164733E-2
MEAN_MOTION_DDOT = 0

CCSDS_OMM_VERS = 2.0
CREATION_DATE  = 
ORIGINATOR     = 

OBJECT_NAME    = STARLINK-36674
OBJECT_ID      = 2026-022P
CENTER_NAME    = EARTH
REF_FRAME      = TEME
TIME_SYSTEM    = UTC
MEAN_ELEMENT_THEORY = SGP/SGP4

EPOCH          = 2026-02-21T19:53:26.478816
MEAN_MOTION    = 15.75212603
ECCENTRICITY   = .0001122
INCLINATION    = 97.2848
RA_OF_ASC_NODE = 86.0464
ARG_OF_PERICENTER = 92.7255
MEAN_ANOMALY   = 267.4139

EPHEMERIS_TYPE = 0
CLASSIFICATION_TYPE = U
NORAD_CAT_ID   = 67661
ELEMENT_SET_NO = 999
REV_AT_EPOCH   = 305
BSTAR          = .9988E-3
MEAN_MOTION_DOT = .15167E-2
MEAN_MOTION_DDOT = 0

CCSDS_OMM_VERS = 2.0
CREATION_DATE  = 
ORIGINATOR     = 

OBJECT_NAME    = STARLINK-36700
OBJECT_ID      = 2026-022Q
CENTER_NAME    = EARTH
REF_FRAME      = TEME
TIME_SYSTEM    = UTC
MEAN_ELEMENT_THEORY = SGP/SGP4

EPOCH          = 2026-02-21T19:50:23.621856
MEAN_MOTION    = 15.75202190
ECCENTRICITY   = .0001525
INCLINATION    = 97.2849
RA_OF_ASC_NODE = 86.0486
ARG_OF_PERICENTER = 80.8204
MEAN_ANOMALY   = 279.3234

EPHEMERIS_TYPE = 0
CLASSIFICATION_TYPE = U
NORAD_CAT_ID   = 67662
ELEMENT_SET_NO = 999
REV_AT_EPOCH   = 305
BSTAR          = .66729E-3
MEAN_MOTION_DOT = .100635E-2
MEAN_MOTION_DDOT = 0

CCSDS_OMM_VERS = 2.0
CREATION_DATE  = 
ORIGINATOR     = 

OBJECT_NAME    = STARLINK-36675
OBJECT_ID      = 2026-022R
CENTER_NAME    = EARTH
REF_FRAME      = TEME
TIME_SYSTEM    = UTC
MEAN_ELEMENT_THEORY = SGP/SGP4

EPOCH          = 2026-02-21T19:52:25.545216
MEAN_MOTION    = 15.75206675
ECCENTRICITY   = .000135
INCLINATION    = 97.2847
RA_OF_ASC_NODE = 86.0470
ARG_OF_PERICENTER = 83.8517
MEAN_ANOMALY   = 276.2902

EPHEMERIS_TYPE = 0
CLASSIFICATION_TYPE = U
NORAD_CAT_ID   = 67663
ELEMENT_SET_NO = 999
REV_AT_EPOCH   = 305
BSTAR          = .64675E-3
MEAN_MOTION_DOT = .97516E-3
MEAN_MOTION_DDOT = 0

CCSDS_OMM_VERS = 2.0
CREATION_DATE  = 
ORIGINATOR     = 

OBJECT_NAME    = STARLINK-36404
OBJECT_ID      = 2026-022S
CENTER_NAME    = EARTH
REF_FRAME      = TEME
TIME_SYSTEM    = UTC
MEAN_ELEMENT_THEORY = SGP/SGP4

EPOCH          = 2026-02-21T19:47:51.279648
MEAN_MOTION    = 15.75211757
ECCENTRICITY   = .000154
INCLINATION    = 97.2849
RA_OF_ASC_NODE = 86.0500
ARG_OF_PERICENTER = 85.5750
MEAN_ANOMALY   = 274.5691

EPHEMERIS_TYPE = 0
CLASSIFICATION_TYPE = U
NORAD_CAT_ID   = 67664
ELEMENT_SET_NO = 999
REV_AT_EPOCH   = 305
BSTAR          = .84684E-3
MEAN_MOTION_DOT = .128217E-2
MEAN_MOTION_DDOT = 0

CCSDS_OMM_VERS = 2.0
CREATION_DATE  = 
ORIGINATOR     = 

OBJECT_NAME    = STARLINK-36399
OBJECT_ID      = 2026-022T
CENTER_NAME    = EARTH
REF_FRAME      = TEME
TIME_SYSTEM    = UTC
MEAN_ELEMENT_THEORY = SGP/SGP4

EPOCH          = 2026-02-21T19:46:50.408256
MEAN_MOTION    = 15.75195900
ECCENTRICITY   = .0001768
INCLINATION    = 97.2848
RA_OF_ASC_NODE = 86.0513
ARG_OF_PERICENTER = 83.0463
MEAN_ANOMALY   = 277.1003

EPHEMERIS_TYPE = 0
CLASSIFICATION_TYPE = U
NORAD_CAT_ID   = 67665
ELEMENT_SET_NO = 999
REV_AT_EPOCH   = 305
BSTAR          = .62839E-3
MEAN_MOTION_DOT = .9467E-3
MEAN_MOTION_DDOT = 0

CCSDS_OMM_VERS = 2.0
CREATION_DATE  = 
ORIGINATOR     = 

OBJECT_NAME    = STARLINK-36365
OBJECT_ID      = 2026-022U
CENTER_NAME    = EARTH
REF_FRAME      = TEME
TIME_SYSTEM    = UTC
MEAN_ELEMENT_THEORY = SGP/SGP4

EPOCH          = 2026-02-21T19:44:48.230016
MEAN_MOTION    = 15.75221248
ECCENTRICITY   = .0001276
INCLINATION    = 97.2848
RA_OF_ASC_NODE = 86.0537
ARG_OF_PERICENTER = 64.1275
MEAN_ANOMALY   = 296.0121

EPHEMERIS_TYPE = 0
CLASSIFICATION_TYPE = U
NORAD_CAT_ID   = 67666
ELEMENT_SET_NO = 999
REV_AT_EPOCH   = 305
BSTAR          = .94598E-3
MEAN_MOTION_DOT = .143559E-2
MEAN_MOTION_DDOT = 0

CCSDS_OMM_VERS = 2.0
CREATION_DATE  = 
ORIGINATOR     = 

OBJECT_NAME    = STARLINK-36622
OBJECT_ID      = 2026-022V
CENTER_NAME    = EARTH
REF_FRAME      = TEME
TIME_SYSTEM    = UTC
MEAN_ELEMENT_THEORY = SGP/SGP4

EPOCH          = 2026-02-21T19:42:15.974208
MEAN_MOTION    = 15.75194111
ECCENTRICITY   = .0001682
INCLINATION    = 97.2846
RA_OF_ASC_NODE = 86.0556
ARG_OF_PERICENTER = 67.6831
MEAN_ANOMALY   = 292.4612

EPHEMERIS_TYPE = 0
CLASSIFICATION_TYPE = U
NORAD_CAT_ID   = 67667
ELEMENT_SET_NO = 999
REV_AT_EPOCH   = 305
BSTAR          = .67312E-3
MEAN_MOTION_DOT = .101492E-2
MEAN_MOTION_DDOT = 0

CCSDS_OMM_VERS = 2.0
CREATION_DATE  = 
ORIGINATOR     = 

OBJECT_NAME    = STARLINK-36625
OBJECT_ID      = 2026-022W
CENTER_NAME    = EARTH
REF_FRAME      = TEME
TIME_SYSTEM    = UTC
MEAN_ELEMENT_THEORY = SGP/SGP4

EPOCH          = 2026-02-21T18:08:44.557728
MEAN_MOTION    = 15.75264552
ECCENTRICITY   = .0001193
INCLINATION    = 97.2842
RA_OF_ASC_NODE = 85.9903
ARG_OF_PERICENTER = 103.6592
MEAN_ANOMALY   = 256.4806

EPHEMERIS_TYPE = 0
CLASSIFICATION_TYPE = U
NORAD_CAT_ID   = 67668
ELEMENT_SET_NO = 999
REV_AT_EPOCH   = 304
BSTAR          = .13577E-2
MEAN_MOTION_DOT = .208067E-2
MEAN_MOTION_DDOT = 0

CCSDS_OMM_VERS = 2.0
CREATION_DATE  = 
ORIGINATOR     = 

OBJECT_NAME    = STARLINK-36639
OBJECT_ID      = 2026-022X
CENTER_NAME    = EARTH
REF_FRAME      = TEME
TIME_SYSTEM    = UTC
MEAN_ELEMENT_THEORY = SGP/SGP4

EPOCH          = 2026-02-21T19:37:40.901664
MEAN_MOTION    = 15.75283854
ECCENTRICITY   = .0001288
INCLINATION    = 97.2846
RA_OF_ASC_NODE = 86.0601
ARG_OF_PERICENTER = 91.3042
MEAN_ANOMALY   = 268.8371

EPHEMERIS_TYPE = 0
CLASSIFICATION_TYPE = U
NORAD_CAT_ID   = 67669
ELEMENT_SET_NO = 999
REV_AT_EPOCH   = 305
BSTAR          = .16062E-2
MEAN_MOTION_DOT = .247518E-2
MEAN_MOTION_DDOT = 0

CCSDS_OMM_VERS = 2.0
CREATION_DATE  = 
ORIGINATOR     = 

OBJECT_NAME    = STARLINK-36596
OBJECT_ID      = 2026-022Y
CENTER_NAME    = EARTH
REF_FRAME      = TEME
TIME_SYSTEM    = UTC
MEAN_ELEMENT_THEORY = SGP/SGP4

EPOCH          = 2026-02-21T19:35:08.458368
MEAN_MOTION    = 15.75283033
ECCENTRICITY   = .0001221
INCLINATION    = 97.2845
RA_OF_ASC_NODE = 86.0620
ARG_OF_PERICENTER = 99.3183
MEAN_ANOMALY   = 260.8220

EPHEMERIS_TYPE = 0
CLASSIFICATION_TYPE = U
NORAD_CAT_ID   = 67670
ELEMENT_SET_NO = 999
REV_AT_EPOCH   = 305
BSTAR          = .15829E-2
MEAN_MOTION_DOT = .243822E-2
MEAN_MOTION_DDOT = 0

CCSDS_OMM_VERS = 2.0
CREATION_DATE  = 
ORIGINATOR     = 

OBJECT_NAME    = STARLINK-36297
OBJECT_ID      = 2026-022Z
CENTER_NAME    = EARTH
REF_FRAME      = TEME
TIME_SYSTEM    = UTC
MEAN_ELEMENT_THEORY = SGP/SGP4

EPOCH          = 2026-02-21T19:32:05.573760
MEAN_MOTION    = 15.75277007
ECCENTRICITY   = .0001661
INCLINATION    = 97.2845
RA_OF_ASC_NODE = 86.0650
ARG_OF_PERICENTER = 94.5058
MEAN_ANOMALY   = 265.6397

EPHEMERIS_TYPE = 0
CLASSIFICATION_TYPE = U
NORAD_CAT_ID   = 67671
ELEMENT_SET_NO = 999
REV_AT_EPOCH   = 305
BSTAR          = .16637E-2
MEAN_MOTION_DOT = .256586E-2
MEAN_MOTION_DDOT = 0

