STARLINK-36673          
1 67660U 26022N   26052.76665986  .00164733  00000+0  10817-2 0  9997
2 67660  97.2845  85.9773 0001167  99.9254 260.2143 15.75241158  3048
STARLINK-36674          
1 67661U 26022P   26052.82877869  .00151670  00000+0  99880-3 0  9994
2 67661  97.2848  86.0464 0001122  92.7255 267.4139 15.75212603  3052
STARLINK-36700          
1 67662U 26022Q   26052.82666229  .00100635  00000+0  66729-3 0  9992
2 67662  97.2849  86.0486 0001525  80.8204 279.3234 15.75202190  3055
STARLINK-36675          
1 67663U 26022R   26052.82807344  .00097516  00000+0  64675-3 0  9999
2 67663  97.2847  86.0470 0001350  83.8517 276.2902 15.75206675  3053
STARLINK-36404          
1 67664U 26022S   26052.82489907  .00128217  00000+0  84684-3 0  9996
2 67664  97.2849  86.0500 0001540  85.5750 274.5691 15.75211757  3052
STARLINK-36399          
1 67665U 26022T   26052.82419454  .00094670  00000+0  62839-3 0  9990
2 67665  97.2848  86.0513 0001768  83.0463 277.1003 15.75195900  3059
STARLINK-36365          
1 67666U 26022U   26052.82278044  .00143559  00000+0  94598-3 0  9997
2 67666  97.2848  86.0537 0001276  64.1275 296.0121 15.75221248  3057
STARLINK-36622          
1 67667U 26022V   26052.82101822  .00101492  00000+0  67312-3 0  9991
2 67667  97.2846  86.0556 0001682  67.6831 292.4612 15.75194111  3057
STARLINK-36625          
1 67668U 26022W   26052.75607127  .00208067  00000+0  13577-2 0  9992
2 67668  97.2842  85.9903 0001193 103.6592 256.4806 15.75264552  3041
STARLINK-36639          
1 67669U 26022X   26052.81783451  .00247518  00000+0  16062-2 0  9991
2 67669  97.2846  86.0601 0001288  91.3042 268.8371 15.75283854  3052
STARLINK-36596          
1 67670U 26022Y   26052.81607012  .00243822  00000+0  15829-2 0  9995
2 67670  97.2845  86.0620 0001221  99.3183 260.8220 15.75283033  3059
STARLINK-36297          
1 67671U 26022Z   26052.81395340  .00256586  00000+0  16637-2 0  9993
2 67671  97.2845  86.0650 0001661  94.5058 265.6397 15.75277007  3051
